ORBCOMM FM20            
1 25416U 98046D   25183.48031509  .00000558  00000+0  23283-3 0  9992
2 25416  44.9941 108.8440 0002333 343.3498  16.7273 14.37232124406466
ORBCOMM FM16            
1 25417U 98046E   25183.59701921  .00000873  00000+0  32639-3 0  9992
2 25417  44.9938  99.6600 0005848   8.3416 351.7529 14.38942844406475
ORBCOMM FM15            
1 25418U 98046F   25183.50752283  .00000754  00000+0  29021-3 0  9990
2 25418  44.9968 105.2753 0005475   6.2728 353.8188 14.38584698406452
ORBCOMM FM14            
1 25419U 98046G   25183.45203570  .00000709  00000+0  27362-3 0  9991
2 25419  44.9958 103.7319 0004386   1.1049 358.9809 14.38947239406419
ORBCOMM FM13            
1 25420U 98046H   25183.50994454  .00000701  00000+0  27798-3 0  9992
2 25420  44.9972 111.5828 0006614 349.3107  10.7600 14.37696541405447
ORBCOMM FM21            
1 25475U 98053A   25183.51973877  .00000397  00000+0  17889-3 0  9998
2 25475  45.0066 196.8833 0003808 284.4605  75.5821 14.37370544399458
ORBCOMM FM22            
1 25476U 98053B   25183.33725025  .00000469  00000+0  19848-3 0  9996
2 25476  45.0057 192.4775 0005610 290.9620  69.0628 14.38414282399450
ORBCOMM FM23            
1 25477U 98053C   25183.31003856  .00000434  00000+0  19060-3 0  9994
2 25477  45.0063 199.9785 0004811 284.2238  75.8076 14.37554726399576
